<?xml version="1.0" encoding="UTF-8"?>
<ndm xmlns:xsi="http://www.w3.org/2001/XMLSchema-instance" xsi:noNamespaceSchemaLocation="https://sanaregistry.org/r/ndmxml_unqualified/ndmxml-2.0.0-master-2.0.xsd">
<omm id="CCSDS_OMM_VERS" version="2.0">
<header><CREATION_DATE/><ORIGINATOR/></header><body><segment><metadata><OBJECT_NAME>KUIPER-00044</OBJECT_NAME><OBJECT_ID>2025-134F</OBJECT_ID><CENTER_NAME>EARTH</CENTER_NAME><REF_FRAME>TEME</REF_FRAME><TIME_SYSTEM>UTC</TIME_SYSTEM><MEAN_ELEMENT_THEORY>SGP4</MEAN_ELEMENT_THEORY></metadata><data><meanElements><EPOCH>2025-12-26T14:46:05.925504</EPOCH><MEAN_MOTION>14.79940872</MEAN_MOTION><ECCENTRICITY>.00120522</ECCENTRICITY><INCLINATION>51.8982</INCLINATION><RA_OF_ASC_NODE>209.7283</RA_OF_ASC_NODE><ARG_OF_PERICENTER>34.4477</ARG_OF_PERICENTER><MEAN_ANOMALY>325.7264</MEAN_ANOMALY></meanElements><tleParameters><EPHEMERIS_TYPE>0</EPHEMERIS_TYPE><CLASSIFICATION_TYPE>U</CLASSIFICATION_TYPE><NORAD_CAT_ID>64505</NORAD_CAT_ID><ELEMENT_SET_NO>999</ELEMENT_SET_NO><REV_AT_EPOCH>2906</REV_AT_EPOCH><BSTAR>.34431544E-3</BSTAR><MEAN_MOTION_DOT>.2405E-4</MEAN_MOTION_DOT><MEAN_MOTION_DDOT>0</MEAN_MOTION_DDOT></tleParameters></data></segment></body></omm>
<omm id="CCSDS_OMM_VERS" version="2.0">
<header><CREATION_DATE/><ORIGINATOR/></header><body><segment><metadata><OBJECT_NAME>KUIPER-00046</OBJECT_NAME><OBJECT_ID>2025-134G</OBJECT_ID><CENTER_NAME>EARTH</CENTER_NAME><REF_FRAME>TEME</REF_FRAME><TIME_SYSTEM>UTC</TIME_SYSTEM><MEAN_ELEMENT_THEORY>SGP4</MEAN_ELEMENT_THEORY></metadata><data><meanElements><EPOCH>2025-12-25T23:55:08.253984</EPOCH><MEAN_MOTION>14.80720789</MEAN_MOTION><ECCENTRICITY>.00129991</ECCENTRICITY><INCLINATION>51.8970</INCLINATION><RA_OF_ASC_NODE>208.7726</RA_OF_ASC_NODE><ARG_OF_PERICENTER>41.4160</ARG_OF_PERICENTER><MEAN_ANOMALY>318.7785</MEAN_ANOMALY></meanElements><tleParameters><EPHEMERIS_TYPE>0</EPHEMERIS_TYPE><CLASSIFICATION_TYPE>U</CLASSIFICATION_TYPE><NORAD_CAT_ID>64506</NORAD_CAT_ID><ELEMENT_SET_NO>999</ELEMENT_SET_NO><REV_AT_EPOCH>2902</REV_AT_EPOCH><BSTAR>.4304826E-3</BSTAR><MEAN_MOTION_DOT>.3124E-4</MEAN_MOTION_DOT><MEAN_MOTION_DDOT>0</MEAN_MOTION_DDOT></tleParameters></data></segment></body></omm>
<omm id="CCSDS_OMM_VERS" version="2.0">
<header><CREATION_DATE/><ORIGINATOR/></header><body><segment><metadata><OBJECT_NAME>KUIPER-00047</OBJECT_NAME><OBJECT_ID>2025-134H</OBJECT_ID><CENTER_NAME>EARTH</CENTER_NAME><REF_FRAME>TEME</REF_FRAME><TIME_SYSTEM>UTC</TIME_SYSTEM><MEAN_ELEMENT_THEORY>SGP4</MEAN_ELEMENT_THEORY></metadata><data><meanElements><EPOCH>2025-12-26T16:00:01.999584</EPOCH><MEAN_MOTION>14.80006086</MEAN_MOTION><ECCENTRICITY>.00019633</ECCENTRICITY><INCLINATION>51.8979</INCLINATION><RA_OF_ASC_NODE>177.3066</RA_OF_ASC_NODE><ARG_OF_PERICENTER>129.5592</ARG_OF_PERICENTER><MEAN_ANOMALY>28.8436</MEAN_ANOMALY></meanElements><tleParameters><EPHEMERIS_TYPE>0</EPHEMERIS_TYPE><CLASSIFICATION_TYPE>U</CLASSIFICATION_TYPE><NORAD_CAT_ID>64507</NORAD_CAT_ID><ELEMENT_SET_NO>999</ELEMENT_SET_NO><REV_AT_EPOCH>426</REV_AT_EPOCH><BSTAR>-.58773675E-2</BSTAR><MEAN_MOTION_DOT>-.44809E-3</MEAN_MOTION_DOT><MEAN_MOTION_DDOT>0</MEAN_MOTION_DDOT></tleParameters></data></segment></body></omm>
<omm id="CCSDS_OMM_VERS" version="2.0">
<header><CREATION_DATE/><ORIGINATOR/></header><body><segment><metadata><OBJECT_NAME>KUIPER-00048</OBJECT_NAME><OBJECT_ID>2025-134J</OBJECT_ID><CENTER_NAME>EARTH</CENTER_NAME><REF_FRAME>TEME</REF_FRAME><TIME_SYSTEM>UTC</TIME_SYSTEM><MEAN_ELEMENT_THEORY>SGP4</MEAN_ELEMENT_THEORY></metadata><data><meanElements><EPOCH>2025-12-26T12:20:32.476128</EPOCH><MEAN_MOTION>14.79937286</MEAN_MOTION><ECCENTRICITY>.0002742</ECCENTRICITY><INCLINATION>51.8975</INCLINATION><RA_OF_ASC_NODE>179.1646</RA_OF_ASC_NODE><ARG_OF_PERICENTER>176.3885</ARG_OF_PERICENTER><MEAN_ANOMALY>183.7098</MEAN_ANOMALY></meanElements><tleParameters><EPHEMERIS_TYPE>0</EPHEMERIS_TYPE><CLASSIFICATION_TYPE>U</CLASSIFICATION_TYPE><NORAD_CAT_ID>64508</NORAD_CAT_ID><ELEMENT_SET_NO>999</ELEMENT_SET_NO><REV_AT_EPOCH>2948</REV_AT_EPOCH><BSTAR>.36929583E-3</BSTAR><MEAN_MOTION_DOT>.2595E-4</MEAN_MOTION_DOT><MEAN_MOTION_DDOT>0</MEAN_MOTION_DDOT></tleParameters></data></segment></body></omm>
<omm id="CCSDS_OMM_VERS" version="2.0">
<header><CREATION_DATE/><ORIGINATOR/></header><body><segment><metadata><OBJECT_NAME>KUIPER-00049</OBJECT_NAME><OBJECT_ID>2025-134K</OBJECT_ID><CENTER_NAME>EARTH</CENTER_NAME><REF_FRAME>TEME</REF_FRAME><TIME_SYSTEM>UTC</TIME_SYSTEM><MEAN_ELEMENT_THEORY>SGP4</MEAN_ELEMENT_THEORY></metadata><data><meanElements><EPOCH>2025-12-26T13:36:01.694592</EPOCH><MEAN_MOTION>14.79937523</MEAN_MOTION><ECCENTRICITY>.00031023</ECCENTRICITY><INCLINATION>51.9011</INCLINATION><RA_OF_ASC_NODE>192.4064</RA_OF_ASC_NODE><ARG_OF_PERICENTER>58.7254</ARG_OF_PERICENTER><MEAN_ANOMALY>301.4011</MEAN_ANOMALY></meanElements><tleParameters><EPHEMERIS_TYPE>0</EPHEMERIS_TYPE><CLASSIFICATION_TYPE>U</CLASSIFICATION_TYPE><NORAD_CAT_ID>64509</NORAD_CAT_ID><ELEMENT_SET_NO>999</ELEMENT_SET_NO><REV_AT_EPOCH>2930</REV_AT_EPOCH><BSTAR>.42088296E-3</BSTAR><MEAN_MOTION_DOT>.2989E-4</MEAN_MOTION_DOT><MEAN_MOTION_DDOT>0</MEAN_MOTION_DDOT></tleParameters></data></segment></body></omm>
<omm id="CCSDS_OMM_VERS" version="2.0">
<header><CREATION_DATE/><ORIGINATOR/></header><body><segment><metadata><OBJECT_NAME>KUIPER-00050</OBJECT_NAME><OBJECT_ID>2025-134L</OBJECT_ID><CENTER_NAME>EARTH</CENTER_NAME><REF_FRAME>TEME</REF_FRAME><TIME_SYSTEM>UTC</TIME_SYSTEM><MEAN_ELEMENT_THEORY>SGP4</MEAN_ELEMENT_THEORY></metadata><data><meanElements><EPOCH>2025-12-26T12:47:06.874080</EPOCH><MEAN_MOTION>14.96777555</MEAN_MOTION><ECCENTRICITY>.00048251</ECCENTRICITY><INCLINATION>51.8900</INCLINATION><RA_OF_ASC_NODE>184.3814</RA_OF_ASC_NODE><ARG_OF_PERICENTER>79.3436</ARG_OF_PERICENTER><MEAN_ANOMALY>280.8077</MEAN_ANOMALY></meanElements><tleParameters><EPHEMERIS_TYPE>0</EPHEMERIS_TYPE><CLASSIFICATION_TYPE>U</CLASSIFICATION_TYPE><NORAD_CAT_ID>64510</NORAD_CAT_ID><ELEMENT_SET_NO>999</ELEMENT_SET_NO><REV_AT_EPOCH>2941</REV_AT_EPOCH><BSTAR>.43707808E-3</BSTAR><MEAN_MOTION_DOT>.48E-4</MEAN_MOTION_DOT><MEAN_MOTION_DDOT>0</MEAN_MOTION_DDOT></tleParameters></data></segment></body></omm>
<omm id="CCSDS_OMM_VERS" version="2.0">
<header><CREATION_DATE/><ORIGINATOR/></header><body><segment><metadata><OBJECT_NAME>KUIPER-00051</OBJECT_NAME><OBJECT_ID>2025-134M</OBJECT_ID><CENTER_NAME>EARTH</CENTER_NAME><REF_FRAME>TEME</REF_FRAME><TIME_SYSTEM>UTC</TIME_SYSTEM><MEAN_ELEMENT_THEORY>SGP4</MEAN_ELEMENT_THEORY></metadata><data><meanElements><EPOCH>2025-12-26T05:33:46.928160</EPOCH><MEAN_MOTION>14.79939511</MEAN_MOTION><ECCENTRICITY>.00025149</ECCENTRICITY><INCLINATION>51.9014</INCLINATION><RA_OF_ASC_NODE>191.4526</RA_OF_ASC_NODE><ARG_OF_PERICENTER>55.6107</ARG_OF_PERICENTER><MEAN_ANOMALY>304.5093</MEAN_ANOMALY></meanElements><tleParameters><EPHEMERIS_TYPE>0</EPHEMERIS_TYPE><CLASSIFICATION_TYPE>U</CLASSIFICATION_TYPE><NORAD_CAT_ID>64511</NORAD_CAT_ID><ELEMENT_SET_NO>999</ELEMENT_SET_NO><REV_AT_EPOCH>2928</REV_AT_EPOCH><BSTAR>-.72014447E-4</BSTAR><MEAN_MOTION_DOT>-.771E-5</MEAN_MOTION_DOT><MEAN_MOTION_DDOT>0</MEAN_MOTION_DDOT></tleParameters></data></segment></body></omm>
<omm id="CCSDS_OMM_VERS" version="2.0">
<header><CREATION_DATE/><ORIGINATOR/></header><body><segment><metadata><OBJECT_NAME>KUIPER-00052</OBJECT_NAME><OBJECT_ID>2025-134N</OBJECT_ID><CENTER_NAME>EARTH</CENTER_NAME><REF_FRAME>TEME</REF_FRAME><TIME_SYSTEM>UTC</TIME_SYSTEM><MEAN_ELEMENT_THEORY>SGP4</MEAN_ELEMENT_THEORY></metadata><data><meanElements><EPOCH>2025-12-26T14:45:51.304896</EPOCH><MEAN_MOTION>15.74507377</MEAN_MOTION><ECCENTRICITY>.00023452</ECCENTRICITY><INCLINATION>51.8610</INCLINATION><RA_OF_ASC_NODE>123.9686</RA_OF_ASC_NODE><ARG_OF_PERICENTER>123.6269</ARG_OF_PERICENTER><MEAN_ANOMALY>236.4957</MEAN_ANOMALY></meanElements><tleParameters><EPHEMERIS_TYPE>0</EPHEMERIS_TYPE><CLASSIFICATION_TYPE>U</CLASSIFICATION_TYPE><NORAD_CAT_ID>64512</NORAD_CAT_ID><ELEMENT_SET_NO>999</ELEMENT_SET_NO><REV_AT_EPOCH>3024</REV_AT_EPOCH><BSTAR>.24297156E-2</BSTAR><MEAN_MOTION_DOT>.377296E-2</MEAN_MOTION_DOT><MEAN_MOTION_DDOT>0</MEAN_MOTION_DDOT></tleParameters></data></segment></body></omm>

</ndm>
