KUIPER-00044            
1 64505U 25134F   25360.61534636  .00002405  00000+0  34432-3 0  9994
2 64505  51.8982 209.7283 0012052  34.4477 325.7264 14.79940872 29062
KUIPER-00046            
1 64506U 25134G   25359.99662331  .00003124  00000+0  43048-3 0  9990
2 64506  51.8970 208.7726 0012999  41.4160 318.7785 14.80720789 29029
KUIPER-00047            
1 64507U 25134H   25360.66668981 -.00044809  00000+0 -58774-2 0  9992
2 64507  51.8979 177.3066 0001963 129.5592  28.8436 14.80006086  4261
KUIPER-00048            
1 64508U 25134J   25360.51426477  .00002595  00000+0  36930-3 0  9994
2 64508  51.8975 179.1646 0002742 176.3885 183.7098 14.79937286 29482
KUIPER-00049            
1 64509U 25134K   25360.56668628  .00002989  00000+0  42088-3 0  9994
2 64509  51.9011 192.4064 0003102  58.7254 301.4011 14.79937523 29300
KUIPER-00050            
1 64510U 25134L   25360.53271845  .00004800  00000+0  43708-3 0  9998
2 64510  51.8900 184.3814 0004825  79.3436 280.8077 14.96777555 29415
KUIPER-00051            
1 64511U 25134M   25360.23179315 -.00000771  00000+0 -72014-4 0  9993
2 64511  51.9014 191.4526 0002514  55.6107 304.5093 14.79939511 29287
KUIPER-00052            
1 64512U 25134N   25360.61517714  .00377296  00000+0  24297-2 0  9990
2 64512  51.8610 123.9686 0002345 123.6269 236.4957 15.74507377 30240
